0 FENGYUN 1C DEB
1 32108U 99025CRA 13282.46948848  .00035975  00000-0  57401-2 0  4348
2 32108 099.0784 105.5164 0103008 288.3656 100.3460 14.68261941329870
0 FENGYUN 1C DEB
1 32108U 99025CRA 13283.30542017  .00033176  00000-0  52961-2 0  4358
2 32108 099.0809 106.4415 0102658 285.6653 199.0395 14.68287072329992
0 FENGYUN 1C DEB
1 32108U 99025CRA 13284.32738546  .00032065  00000-0  51148-2 0  4368
2 32108 099.0812 107.5768 0102668 282.5364 201.0688 14.68328983330140
0 FENGYUN 1C DEB
1 32108U 99025CRA 13285.74547573  .00026083  00000-0  41594-2 0  4371
2 32108 099.0802 109.1514 0102555 278.2169 137.2381 14.68402597330353
0 FENGYUN 1C DEB
1 32108U 99025CRA 13288.46603814  .00045738  00000-0  72442-2 0  4389
2 32108 099.0791 112.1701 0102104 269.8916 119.4910 14.68565761330755
0 FENGYUN 1C DEB
1 32108U 99025CRA 13288.74348557  .00039740  00000-0  62983-2 0  4396
2 32108 099.0790 112.4780 0102084 269.0762 146.2842 14.68582962330790
0 FENGYUN 1C DEB
1 32108U 99025CRA 13290.32354170  .00043347  00000-0  68535-2 0  4400
2 32108 099.0791 114.2320 0101861 264.2572 220.1368 14.68673332331023
0 FENGYUN 1C DEB
1 32108U 99025CRA 13290.70857928  .00038252  00000-0  60728-2 0  4417
2 32108 099.0793 114.6555 0101721 262.8998 096.1112 14.68706735331088
0 FENGYUN 1C DEB
1 32108U 99025CRA 13291.34519913  .00036581  00000-0  57829-2 0  4418
2 32108 099.0791 115.3658 0101709 261.0544 222.0808 14.68740568331176
0 FENGYUN 1C DEB
1 32108U 99025CRA 13293.32117017  .00038615  00000-0  60870-2 0  4428
2 32108 099.0793 117.5603 0101413 255.0718 230.3590 14.68866457331468
0 FENGYUN 1C DEB
1 32108U 99025CRA 13294.34236377  .00042707  00000-0  67199-2 0  4431
2 32108 099.0795 118.6942 0101267 251.9200 230.4950 14.68923429331617
0 FENGYUN 1C DEB
1 32108U 99025CRA 13295.76027927  .00045269  00000-0  71068-2 0  4444
2 32108 099.0799 120.2688 0101015 247.6129 168.8368 14.69018974331821
